ONEWEB-0113             
1 48050U 21025J   21099.83334491 -.00059087  00000-0 -14929-2 0  9991
2 48050  87.3962 344.5771 0007738 185.2977 168.0942 15.40062389  3684
ONEWEB-0112             
1 48051U 21025K   21099.83334491 -.00057540  00000-0 -14210-2 0  9997
2 48051  87.3968 344.5739 0004496 194.2036 198.9577 15.40773669  3685
ONEWEB-0156             
1 48052U 21025L   21099.83334491 -.00059477  00000-0 -15467-2 0  9994
2 48052  87.3953 344.5861 0008154 213.5073  90.5812 15.39179158  3676
ONEWEB-0161             
1 48053U 21025M   21099.83334491 -.00057848  00000-0 -15602-2 0  9996
2 48053  87.3971 344.5997 0005506 194.0493  48.2967 15.38072369  3670
ONEWEB-0158             
1 48054U 21025N   21099.83334491 -.00057549  00000-0 -13996-2 0  9999
2 48054  87.3958 344.5696 0005420 204.5341 209.7694 15.41232522  3681
ONEWEB-0157             
1 48055U 21025P   21099.83334491 -.00058662  00000-0 -14766-2 0  9993
2 48055  87.3956 344.5794 0007309 183.3419 176.5747 15.40179004  3692
ONEWEB-0162             
1 48056U 21025Q   21099.83334491 -.00057942  00000-0 -15690-2 0  9991
2 48056  87.3933 344.5903 0005918 190.5872  44.8165 15.37946736  3687
ONEWEB-0155             
1 48057U 21025R   21099.83334491 -.00058881  00000-0 -14095-2 0  9993
2 48057  87.3976 344.5700 0008251 205.0010 239.5437 15.41692218  3705
ONEWEB-0149             
1 48058U 21025S   21099.83334491 -.00058983  00000-0 -15572-2 0  9998
2 48058  87.3946 344.5862 0006490 219.0998  63.8239 15.38727471  3675
ONEWEB-0148             
1 48059U 21025T   21099.83334491 -.00059521  00000-0 -15270-2 0  9993
2 48059  87.3925 344.5762 0008694 199.9174 127.0537 15.39589260  3703
ONEWEB-0160             
1 48060U 21025U   21099.83334491 -.00058236  00000-0 -15535-2 0  9991
2 48060  87.3954 344.5922 0004767 201.7107  54.9747 15.38417369  3687
ONEWEB-0163             
1 48061U 21025V   21099.83334491 -.00059230  00000-0 -14110-2 0  9995
2 48061  87.3952 344.5598 0008779 203.1001 249.3651 15.41834141  3703
ONEWEB-0159             
1 48062U 21025W   21099.83334491 -.00058077  00000-0 -14498-2 0  9993
2 48062  87.3970 344.5785 0005982 179.3144 195.1298 15.40438966  3694
ONEWEB-0164             
1 48063U 21025X   21099.83334491 -.00059568  00000-0 -15310-2 0  9994
2 48063  87.3974 344.5838 0008807 201.9074 118.6425 15.39532400  3699
ONEWEB-0167             
1 48064U 21025Y   21099.83334491 -.00058549  00000-0 -15560-2 0  9990
2 48064  87.3941 344.5884 0005585 222.9432  49.2995 15.38528725  3679
ONEWEB-0166             
1 48065U 21025Z   21099.83334491 -.00059662  00000-0 -14160-2 0  9993
2 48065  87.3969 344.5651 0009202 201.7871 256.7875 15.41943543  3703
ONEWEB-0151             
1 48066U 21025AA  21099.83334491 -.00057656  00000-0 -14274-2 0  9991
2 48066  87.3980 344.5790 0005149 186.1856 202.5879 15.40695221  3693
ONEWEB-0170             
1 48067U 21025AB  21099.83334491 -.00059512  00000-0 -15396-2 0  9991
2 48067  87.3938 344.5810 0008723 207.2129 105.4735 15.39332770  3663
ONEWEB-0168             
1 48068U 21025AC  21099.83334491 -.00058340  00000-0 -15566-2 0  9999
2 48068  87.3931 344.5887 0005064 211.5057  49.6561 15.38409605  3650
ONEWEB-0173             
1 48069U 21025AD  21099.58334491  .00075737  00000-0  18377-2 0  9992
2 48069  87.3953 344.6614 0004790 189.9540 259.3400 15.40742496  1789
ONEWEB-0171             
1 48070U 21025AE  21099.83334491 -.00058501  00000-0 -14055-2 0  9993
2 48070  87.3959 344.5646 0007855 206.6291 231.9387 15.41585279  3705
ONEWEB-0172             
1 48071U 21025AF  21099.83334491 -.00057814  00000-0 -14379-2 0  9999
2 48071  87.3932 344.5695 0005632 182.1672 198.6873 15.40553310  3690
ONEWEB-0174             
1 48072U 21025AG  21099.83334491 -.00060165  00000-0 -13908-2 0  9990
2 48072  87.3964 344.5585 0010511 179.8271 322.5405 15.42720606  3712
ONEWEB-0175             
1 48073U 21025AH  21099.83334491 -.00058594  00000-0 -15611-2 0  9997
2 48073  87.3977 344.5948 0005776 217.0386  50.6851 15.38450993  3672
ONEWEB-0177             
1 48074U 21025AJ  21099.83334491 -.00060402  00000-0 -14013-2 0  9994
2 48074  87.3943 344.5542 0010405 182.4531 313.7999 15.42615240  3701
ONEWEB-0178             
1 48075U 21025AK  21099.83334491 -.00060433  00000-0 -14172-2 0  9995
2 48075  87.3958 344.5594 0010603 186.9488 293.9373 15.42290409  3717
ONEWEB-0108             
1 48076U 21025AL  21099.83334491 -.00060494  00000-0 -14093-2 0  9995
2 48076  87.3986 344.5633 0010359 185.4340 303.7760 15.42491394  3707
ONEWEB-0169             
1 48077U 21025AM  21099.83334491 -.00059390  00000-0 -15181-2 0  9998
2 48077  87.3954 344.5809 0008707 196.6456 136.5384 15.39699709  3636
